{
  "timestamp": "2025-10-04T12:28:05.039749",
  "data": [
    {
      "OBJECT_NAME": "UNKNOWN",
      "OBJECT_ID": "",
      "EPOCH": "2025-10-03T06:43:56.427744",
      "MEAN_MOTION": 12.45219808,
      "ECCENTRICITY": 0.07073212,
      "INCLINATION": 83.4096,
      "RA_OF_ASC_NODE": 124.3383,
      "ARG_OF_PERICENTER": 143.6452,
      "MEAN_ANOMALY": 221.49,
      "EPHEMERIS_TYPE": 0,
      "CLASSIFICATION_TYPE": "U",
      "NORAD_CAT_ID": 270343,
      "ELEMENT_SET_NO": 999,
      "REV_AT_EPOCH": 18527,
      "BSTAR": 0.0031805947,
      "MEAN_MOTION_DOT": 1.127e-5,
      "MEAN_MOTION_DDOT": 0
    },
    {
      "OBJECT_NAME": "UNKNOWN",
      "OBJECT_ID": "",
      "EPOCH": "2025-09-12T21:05:36.451968",
      "MEAN_MOTION": 13.06449343,
      "ECCENTRICITY": 0.02621183,
      "INCLINATION": 105.8359,
      "RA_OF_ASC_NODE": 316.0401,
      "ARG_OF_PERICENTER": 262.8202,
      "MEAN_ANOMALY": 94.3015,
      "EPHEMERIS_TYPE": 0,
      "CLASSIFICATION_TYPE": "U",
      "NORAD_CAT_ID": 270344,
      "ELEMENT_SET_NO": 999,
      "REV_AT_EPOCH": 19022,
      "BSTAR": 0.00050729473,
      "MEAN_MOTION_DOT": 1.16e-6,
      "MEAN_MOTION_DDOT": 0
    },
    {
      "OBJECT_NAME": "UNKNOWN",
      "OBJECT_ID": "",
      "EPOCH": "2025-10-02T10:03:06.266592",
      "MEAN_MOTION": 12.04046784,
      "ECCENTRICITY": 0.09183822,
      "INCLINATION": 83.2978,
      "RA_OF_ASC_NODE": 333.52,
      "ARG_OF_PERICENTER": 48.3689,
      "MEAN_ANOMALY": 319.2419,
      "EPHEMERIS_TYPE": 0,
      "CLASSIFICATION_TYPE": "U",
      "NORAD_CAT_ID": 270345,
      "ELEMENT_SET_NO": 999,
      "REV_AT_EPOCH": 17859,
      "BSTAR": -0.00030218666,
      "MEAN_MOTION_DOT": -7.6e-7,
      "MEAN_MOTION_DDOT": 0
    },
    {
      "OBJECT_NAME": "UNKNOWN",
      "OBJECT_ID": "",
      "EPOCH": "2025-09-30T11:42:14.103936",
      "MEAN_MOTION": 12.98290987,
      "ECCENTRICITY": 0.00281064,
      "INCLINATION": 90.2394,
      "RA_OF_ASC_NODE": 351.2665,
      "ARG_OF_PERICENTER": 1.5774,
      "MEAN_ANOMALY": 358.5431,
      "EPHEMERIS_TYPE": 0,
      "CLASSIFICATION_TYPE": "U",
      "NORAD_CAT_ID": 270346,
      "ELEMENT_SET_NO": 999,
      "REV_AT_EPOCH": 18466,
      "BSTAR": -0.00018448722,
      "MEAN_MOTION_DOT": -4.7e-7,
      "MEAN_MOTION_DDOT": 0
    },
    {
      "OBJECT_NAME": "UNKNOWN",
      "OBJECT_ID": "",
      "EPOCH": "2025-10-02T13:47:14.507808",
      "MEAN_MOTION": 13.04710517,
      "ECCENTRICITY": 0.00975385,
      "INCLINATION": 82.6908,
      "RA_OF_ASC_NODE": 21.2388,
      "ARG_OF_PERICENTER": 209.9732,
      "MEAN_ANOMALY": 149.5779,
      "EPHEMERIS_TYPE": 0,
      "CLASSIFICATION_TYPE": "U",
      "NORAD_CAT_ID": 270347,
      "ELEMENT_SET_NO": 999,
      "REV_AT_EPOCH": 11193,
      "BSTAR": 0.0027240194,
      "MEAN_MOTION_DOT": 9.08e-6,
      "MEAN_MOTION_DDOT": 0
    },
    {
      "OBJECT_NAME": "UNKNOWN",
      "OBJECT_ID": "",
      "EPOCH": "2025-09-30T02:35:01.099968",
      "MEAN_MOTION": 13.12052988,
      "ECCENTRICITY": 0.02524334,
      "INCLINATION": 82.6191,
      "RA_OF_ASC_NODE": 56.3825,
      "ARG_OF_PERICENTER": 129.3098,
      "MEAN_ANOMALY": 233.0701,
      "EPHEMERIS_TYPE": 0,
      "CLASSIFICATION_TYPE": "U",
      "NORAD_CAT_ID": 270348,
      "ELEMENT_SET_NO": 999,
      "REV_AT_EPOCH": 7833,
      "BSTAR": 0.027031238,
      "MEAN_MOTION_DOT": 0.00011361,
      "MEAN_MOTION_DDOT": 0
    },
    {
      "OBJECT_NAME": "UNKNOWN",
      "OBJECT_ID": "",
      "EPOCH": "2025-10-01T19:14:53.342592",
      "MEAN_MOTION": 13.20999003,
      "ECCENTRICITY": 0.00234491,
      "INCLINATION": 82.5459,
      "RA_OF_ASC_NODE": 311.0668,
      "ARG_OF_PERICENTER": 355.7266,
      "MEAN_ANOMALY": 4.3655,
      "EPHEMERIS_TYPE": 0,
      "CLASSIFICATION_TYPE": "U",
      "NORAD_CAT_ID": 270349,
      "ELEMENT_SET_NO": 999,
      "REV_AT_EPOCH": 17171,
      "BSTAR": 0.0011971191,
      "MEAN_MOTION_DOT": 5.01e-6,
      "MEAN_MOTION_DDOT": 0
    },
    {
      "OBJECT_NAME": "UNKNOWN",
      "OBJECT_ID": "",
      "EPOCH": "2025-09-30T13:14:56.844384",
      "MEAN_MOTION": 13.13026099,
      "ECCENTRICITY": 0.00913381,
      "INCLINATION": 103.1425,
      "RA_OF_ASC_NODE": 28.4295,
      "ARG_OF_PERICENTER": 112.785,
      "MEAN_ANOMALY": 248.2931,
      "EPHEMERIS_TYPE": 0,
      "CLASSIFICATION_TYPE": "U",
      "NORAD_CAT_ID": 270376,
      "ELEMENT_SET_NO": 999,
      "REV_AT_EPOCH": 13302,
      "BSTAR": 0.030812211,
      "MEAN_MOTION_DOT": 0.00011383,
      "MEAN_MOTION_DDOT": 0
    },
    {
      "OBJECT_NAME": "UNKNOWN",
      "OBJECT_ID": "",
      "EPOCH": "2025-10-02T00:49:27.070176",
      "MEAN_MOTION": 13.20033897,
      "ECCENTRICITY": 0.04216272,
      "INCLINATION": 82.5501,
      "RA_OF_ASC_NODE": 29.1196,
      "ARG_OF_PERICENTER": 75.8537,
      "MEAN_ANOMALY": 288.9047,
      "EPHEMERIS_TYPE": 0,
      "CLASSIFICATION_TYPE": "U",
      "NORAD_CAT_ID": 270378,
      "ELEMENT_SET_NO": 999,
      "REV_AT_EPOCH": 13200,
      "BSTAR": 0.0015948678,
      "MEAN_MOTION_DOT": 1.036e-5,
      "MEAN_MOTION_DDOT": 0
    },
    {
      "OBJECT_NAME": "UNKNOWN",
      "OBJECT_ID": "",
      "EPOCH": "2025-10-03T12:03:24.653088",
      "MEAN_MOTION": 14.18064367,
      "ECCENTRICITY": 0.0018237,
      "INCLINATION": 81.2114,
      "RA_OF_ASC_NODE": 182.2399,
      "ARG_OF_PERICENTER": 348.4925,
      "MEAN_ANOMALY": 11.5831,
      "EPHEMERIS_TYPE": 0,
      "CLASSIFICATION_TYPE": "U",
      "NORAD_CAT_ID": 270387,
      "ELEMENT_SET_NO": 999,
      "REV_AT_EPOCH": 12363,
      "BSTAR": 0.0035544957,
      "MEAN_MOTION_DOT": 7.312e-5,
      "MEAN_MOTION_DDOT": 0
    },
    {
      "OBJECT_NAME": "UNKNOWN",
      "OBJECT_ID": "",
      "EPOCH": "2025-10-03T08:27:54.323712",
      "MEAN_MOTION": 14.03000394,
      "ECCENTRICITY": 0.01250495,
      "INCLINATION": 89.1886,
      "RA_OF_ASC_NODE": 313.941,
      "ARG_OF_PERICENTER": 317.6326,
      "MEAN_ANOMALY": 41.5249,
      "EPHEMERIS_TYPE": 0,
      "CLASSIFICATION_TYPE": "U",
      "NORAD_CAT_ID": 270408,
      "ELEMENT_SET_NO": 999,
      "REV_AT_EPOCH": 962,
      "BSTAR": 0.0006187181,
      "MEAN_MOTION_DOT": 1.04e-5,
      "MEAN_MOTION_DDOT": 0
    },
    {
      "OBJECT_NAME": "UNKNOWN",
      "OBJECT_ID": "",
      "EPOCH": "2025-10-03T10:21:24.984288",
      "MEAN_MOTION": 14.69543772,
      "ECCENTRICITY": 0.01464892,
      "INCLINATION": 88.743,
      "RA_OF_ASC_NODE": 286.3831,
      "ARG_OF_PERICENTER": 5.5363,
      "MEAN_ANOMALY": 354.743,
      "EPHEMERIS_TYPE": 0,
      "CLASSIFICATION_TYPE": "U",
      "NORAD_CAT_ID": 270413,
      "ELEMENT_SET_NO": 999,
      "REV_AT_EPOCH": 6155,
      "BSTAR": 0.0015271464,
      "MEAN_MOTION_DOT": 0.00010716,
      "MEAN_MOTION_DDOT": 0
    }
  ]
}
