1 T0343U          25276.28051421  .00001127  00000-0  31806-2 0  9996
2 T0343  83.4096 124.3383 0707321 143.6452 221.4900 12.45219808185272
1 T0344U          25255.87889412  .00000116  00000-0  50729-3 0  9991
2 T0344 105.8359 316.0401 0262118 262.8202  94.3015 13.06449343190224
1 T0345U          25275.41882253 -.00000076  00000-0 -30219-3 0  9999
2 T0345  83.2978 333.5200 0918382  48.3689 319.2419 12.04046784178591
1 T0346U          25273.48766324 -.00000047  00000-0 -18449-3 0  9994
2 T0346  90.2394 351.2665 0028106   1.5774 358.5431 12.98290987184660
1 T0347U          25275.57447347  .00000908  00000-0  27240-2 0  9990
2 T0347  82.6908  21.2388 0097539 209.9732 149.5779 13.04710517111934
1 T0348U          25273.10765162  .00011361  00000-0  27031-1 0  9998
2 T0348  82.6191  56.3825 0252433 129.3098 233.0701 13.12052988 78330
1 T0349U          25274.80200628  .00000501  00000-0  11971-2 0  9999
2 T0349  82.5459 311.0668 0023449 355.7266   4.3655 13.20999003171718
1 T0376U          25273.55204681  .00011383  00000-0  30812-1 0  9997
2 T0376 103.1425  28.4295 0091338 112.7850 248.2931 13.13026099133024
1 T0378U          25275.03434109  .00001036  00000-0  15949-2 0  9993
2 T0378  82.5501  29.1196 0421627  75.8537 288.9047 13.20033897132006
1 T0387U          25276.50236867  .00007312  00000-0  35545-2 0  9994
2 T0387  81.2114 182.2399 0018237 348.4925  11.5831 14.18064367123631
1 T0408U          25276.35271208  .00001040  00000-0  61872-3 0  9994
2 T0408  89.1886 313.9410 0125049 317.6326  41.5249 14.03000394  9620
1 T0413U          25276.43153917  .00010716  00000-0  15271-2 0  9996
2 T0413  88.7430 286.3831 0146489   5.5363 354.7430 14.69543772 61556
